OBJECT_NAME,OBJECT_ID,EPOCH,MEAN_MOTION,ECCENTRICITY,INCLINATION,RA_OF_ASC_NODE,ARG_OF_PERICENTER,MEAN_ANOMALY,EPHEMERIS_TYPE,CLASSIFICATION_TYPE,NORAD_CAT_ID,ELEMENT_SET_NO,REV_AT_EPOCH,BSTAR,MEAN_MOTION_DOT,MEAN_MOTION_DDOT
STARLINK-2493,2021-027BL,2023-12-20T20:45:30.633696,15.06389231,0.0001485,53.0537,187.0649,86.7009,273.415,0,U,48150,999,15064,2.05E-06,-2.51E-06,0
STARLINK-2503,2021-027BM,2023-12-20T19:15:16.637760,15.06393605,0.0001722,53.0525,187.3452,95.705,264.4135,0,U,48151,999,15063,1.05E-04,1.28E-05,0
SHIYAN 6 03 (SY-6 03),2021-028A,2023-12-21T11:06:45.521568,13.72398252,0.0108573,99.5231,352.2253,296.2079,62.7938,0,U,48157,999,13449,8.67E-05,3.70E-07,0
ONEWEB-0176,2021-031A,2023-12-20T21:01:20.096256,13.14501027,0.0001506,87.8973,110.6965,104.3885,255.7412,0,U,48210,999,12885,-1.71E-05,6.00E-08,0
ONEWEB-0184,2021-031B,2023-12-20T20:22:31.227456,13.14509949,0.0002434,87.8983,110.6907,131.7883,228.3455,0,U,48211,999,12882,4.86E-04,1.93E-06,0
ONEWEB-0179,2021-031C,2023-12-20T21:28:43.829472,13.14502377,0.000172,87.8985,110.6784,102.5559,257.5763,0,U,48212,999,12887,-1.34E-03,-4.82E-06,0
ONEWEB-0180,2021-031D,2023-12-20T20:27:04.573728,13.14506949,0.0001858,87.8981,110.6898,103.7548,256.3789,0,U,48213,999,12875,6.13E-04,2.40E-06,0
ONEWEB-0218,2021-031E,2023-12-21T09:46:18.642144,13.14531892,0.0002443,87.8983,110.5814,123.0039,237.1326,0,U,48214,999,12898,-1.43E-02,-5.28E-05,0
ONEWEB-0209,2021-031F,2023-12-20T20:43:04.602144,13.14502344,0.0001674,87.8975,110.7225,102.9957,257.136,0,U,48215,999,12891,4.87E-04,1.93E-06,0
ONEWEB-0198,2021-031G,2023-12-20T20:20:13.758144,13.14504691,0.0002158,87.8972,110.7319,110.4602,249.6759,0,U,48216,999,12900,4.91E-04,1.95E-06,0
ONEWEB-0189,2021-031H,2023-12-21T09:25:46.064064,13.14504517,0.0002184,87.8969,110.5996,108.1529,251.9838,0,U,48217,999,12883,7.02E-04,2.73E-06,0
ONEWEB-0196,2021-031J,2023-12-20T20:06:32.032800,13.14504595,0.0001702,87.8971,110.7074,109.7082,250.4231,0,U,48218,999,12876,6.86E-05,3.80E-07,0
ONEWEB-0183,2021-031K,2023-12-20T21:19:36.847488,13.14501903,0.0001663,87.8974,110.7186,102.7623,257.3693,0,U,48219,999,12886,-4.21E-04,-1.43E-06,0
ONEWEB-0185,2021-031L,2023-12-20T20:07:40.930752,13.14495838,0.0002147,87.897,110.701,89.7168,270.4208,0,U,48220,999,12878,4.59E-03,1.71E-05,0
ONEWEB-0187,2021-031M,2023-12-20T21:13:54.996384,13.14512716,0.000174,87.8976,110.7203,104.9935,255.1388,0,U,48221,999,12880,-4.11E-04,-1.39E-06,0
ONEWEB-0192,2021-031N,2023-12-20T20:45:21.309408,13.14503916,0.0001788,87.9015,110.7197,109.7829,250.3494,0,U,48222,999,12871,6.12E-04,2.40E-06,0
ONEWEB-0219,2021-031P,2023-12-21T09:02:56.029632,13.14503928,0.0001723,87.8969,110.5967,101.3995,258.7328,0,U,48223,999,12899,2.82E-04,1.17E-06,0
ONEWEB-0202,2021-031Q,2023-12-20T19:48:16.404768,13.14505602,0.0002493,87.8971,110.7288,114.8685,245.2704,0,U,48224,999,12889,-5.51E-04,-1.91E-06,0
ONEWEB-0204,2021-031R,2023-12-20T18:47:46.548960,13.14501717,0.0001294,87.8972,110.7492,90.4326,269.6952,0,U,48225,999,12878,5.53E-04,2.18E-06,0
ONEWEB-0205,2021-031S,2023-12-21T08:49:14.336256,13.14503522,0.0001808,87.897,110.6018,99.0656,261.0678,0,U,48226,999,12888,6.64E-05,3.70E-07,0
ONEWEB-0206,2021-031T,2023-12-20T21:12:45.080640,13.14504251,0.0001753,87.8981,110.6901,98.926,261.2068,0,U,48227,999,12877,-1.68E-04,-4.90E-07,0
ONEWEB-0182,2021-031U,2023-12-20T21:05:55.850496,13.14506313,0.0001397,87.8979,110.7128,101.8733,258.2553,0,U,48228,999,12897,3.70E-04,1.50E-06,0
ONEWEB-0186,2021-031V,2023-12-20T19:32:18.192480,13.14503624,0.000175,87.8984,110.6888,109.8408,250.2911,0,U,48229,999,12891,-5.23E-04,-1.81E-06,0
ONEWEB-0181,2021-031W,2023-12-21T09:37:11.256672,13.14501626,0.0001756,87.8976,110.6437,108.0222,252.11,0,U,48230,999,12885,4.85E-04,1.93E-06,0
ONEWEB-0188,2021-031X,2023-12-20T19:55:07.199616,13.14503294,0.0001655,87.8972,110.7553,103.9511,256.1803,0,U,48231,999,12867,-3.11E-04,-1.03E-06,0
ONEWEB-0220,2021-031Y,2023-12-21T09:39:28.690560,13.1450297,0.0001907,87.8978,110.6132,98.1821,261.9525,0,U,48232,999,12901,5.72E-04,2.25E-06,0
ONEWEB-0165,2021-031Z,2023-12-21T08:30:57.868416,13.14503898,0.0001842,87.8973,110.6309,106.9121,253.2211,0,U,48233,999,12896,-4.57E-04,-1.57E-06,0
ONEWEB-0199,2021-031AA,2023-12-20T21:10:27.914592,13.14500969,0.0001709,87.8973,110.6961,102.9935,257.1386,0,U,48234,999,12880,-1.82E-04,-5.50E-07,0
ONEWEB-0203,2021-031AB,2023-12-21T09:44:01.931424,13.14504348,0.0001549,87.8974,110.5927,118.2783,241.8503,0,U,48235,999,12888,4.35E-04,1.74E-06,0
ONEWEB-0197,2021-031AC,2023-12-20T20:21:21.739392,13.14503256,0.0001427,87.8983,110.7084,94.7779,265.3513,0,U,48236,999,12872,-7.96E-04,-2.82E-06,0
ONEWEB-0194,2021-031AD,2023-12-20T19:50:32.289504,13.14504768,0.0001493,87.8971,110.7046,118.3675,241.7605,0,U,48237,999,12889,-5.15E-04,-1.78E-06,0
ONEWEB-0193,2021-031AE,2023-12-20T20:13:22.956384,13.14503215,0.0001803,87.8971,110.7099,111.1841,248.9481,0,U,48238,999,12884,2.60E-04,1.09E-06,0
ONEWEB-0191,2021-031AF,2023-12-21T09:16:37.843968,13.14499128,0.0001664,87.8981,110.5899,110.4226,249.7082,0,U,48239,999,12877,6.61E-04,2.58E-06,0
ONEWEB-0195,2021-031AG,2023-12-21T08:43:31.577952,13.14498196,0.0002094,87.898,110.5947,104.639,255.4972,0,U,48240,999,12875,-2.77E-04,-9.00E-07,0
ONEWEB-0201,2021-031AH,2023-12-20T19:40:18.274080,13.14505691,0.0001708,87.8971,110.7316,101.5464,258.5857,0,U,48241,999,12891,-5.23E-04,-1.81E-06,0
ONEWEB-0207,2021-031AJ,2023-12-21T09:47:28.445568,13.14511685,0.0001614,87.8974,110.5845,98.304,261.8273,0,U,48242,999,12890,3.98E-04,1.60E-06,0
ONEWEB-0208,2021-031AK,2023-12-20T20:33:56.242944,13.14501373,0.0001852,87.8971,110.7103,107.3776,252.7556,0,U,48243,999,12884,7.09E-04,2.76E-06,0
ONEWEB-0200,2021-031AL,2023-12-20T19:41:24.993888,13.14504144,0.0001866,87.8982,110.715,106.4115,253.722,0,U,48244,999,12876,-6.33E-04,-2.22E-06,0
ONEWEB-0217,2021-031AM,2023-12-21T08:51:30.142368,13.14503048,0.0002036,87.8978,110.59,110.1234,250.0114,0,U,48245,999,12879,-6.49E-04,-2.28E-06,0
PLEIADES NEO 3,2021-034A,2023-12-21T11:14:58.580448,14.81676081,0.0001132,97.8957,67.2747,92.5223,267.6119,0,U,48268,999,14309,3.36E-04,2.60E-05,0
LEMUR-2-AMANDA-SVANTE,2021-034B,2023-12-20T17:35:18.638304,14.95063747,0.000419,97.687,58.4826,68.48,291.6867,0,U,48269,999,14365,9.19E-04,1.00E-04,0
AII-BRAVO,2021-034C,2023-12-20T18:18:17.839008,14.90578564,0.0004639,97.6826,56.1157,63.8958,296.2737,0,U,48270,999,14352,4.85E-04,4.69E-05,0
TYVAK-182A,2021-034D,2023-12-20T22:00:28.392192,14.91630637,0.0003255,97.6808,57.0772,98.5199,261.6389,0,U,48271,999,14359,6.16E-04,6.13E-05,0
NORSAT 3,2021-034E,2023-12-21T11:05:38.115744,14.91697042,0.0002137,97.6852,58.1889,119.1277,241.0156,0,U,48272,999,14371,6.44E-04,6.42E-05,0
LEMUR-2-SPECIAL-K,2021-034F,2023-12-21T03:42:06.214176,14.9530181,0.0004391,97.6876,58.9926,60.5645,299.6014,0,U,48273,999,14373,1.02E-03,1.12E-04,0
CSS (TIANHE),2021-035A,2023-12-21T08:54:05.532768,15.63911741,0.0005894,41.4703,95.634,25.7528,334.3605,0,U,48274,999,15110,4.46E-04,4.31E-04,0
STARLINK-2567,2021-036A,2023-12-21T12:09:42.091488,15.06417099,0.0001536,53.0544,79.1835,75.7548,284.3612,0,U,48276,999,14742,4.02E-04,5.71E-05,0
STARLINK-2569,2021-036B,2023-12-21T10:36:09.010080,15.06405401,0.0001411,53.0555,44.475,98.9364,261.1785,0,U,48277,999,14790,3.31E-04,4.65E-05,0
STARLINK-2543,2021-036C,2023-12-21T11:29:54.849984,15.06386554,0.0001413,53.057,59.3865,104.5596,255.555,0,U,48278,999,14769,2.40E-04,3.29E-05,0
STARLINK-2580,2021-036D,2023-12-21T09:43:42.665088,15.06415545,0.0001623,53.0564,59.6319,84.5775,275.5399,0,U,48279,999,14768,1.92E-04,2.58E-05,0
STARLINK-2565,2021-036E,2023-12-20T16:03:32.820768,15.06405346,0.0001359,53.0536,132.9407,71.2974,288.8163,0,U,48280,999,14659,5.25E-04,7.55E-05,0
STARLINK-2520,2021-036F,2023-12-20T14:46:32.964384,15.06395955,0.0001517,53.055,113.1763,123.5632,236.5502,0,U,48281,999,14628,-1.11E-05,-4.47E-06,0
STARLINK-2558,2021-036G,2023-12-21T12:02:23.847360,15.06413269,0.0001068,53.0549,114.2061,70.4278,289.6826,0,U,48282,999,14693,-6.44E-05,-1.24E-05,0
STARLINK-2516,2021-036H,2023-12-21T11:57:05.212800,15.06405602,0.000108,53.0549,114.2232,67.8686,292.2417,0,U,48283,999,14693,3.94E-05,3.06E-06,0
STARLINK-2564,2021-036J,2023-12-21T11:51:46.859904,15.06419966,0.0001229,53.0548,114.2361,96.2906,263.8223,0,U,48284,999,14692,-1.97E-05,-5.76E-06,0
STARLINK-2548,2021-036K,2023-12-21T11:45:06.115104,15.06407318,0.0001265,53.0557,114.2442,118.3287,241.783,0,U,48285,999,14692,1.55E-05,-5.10E-07,0
STARLINK-2547,2021-036L,2023-12-20T16:01:27.548544,15.06385271,0.0001641,53.0545,117.706,68.2304,291.886,0,U,48286,999,14622,3.67E-05,2.65E-06,0
STARLINK-2566,2021-036M,2023-12-20T14:53:50.459424,15.06397449,0.0002066,53.0557,118.159,152.121,207.989,0,U,48287,999,14621,-2.28E-05,-6.22E-06,0
STARLINK-2562,2021-036N,2023-12-21T11:41:10.873824,15.06400443,0.0001253,53.0549,114.35,84.1235,275.9897,0,U,48288,999,14692,1.38E-04,1.77E-05,0
STARLINK-2545,2021-036P,2023-12-21T11:25:14.303136,15.06410622,0.0001516,53.0554,114.3131,120.6457,239.4682,0,U,48289,999,14692,6.72E-05,7.19E-06,0
STARLINK-2540,2021-036Q,2023-12-20T14:37:56.239680,15.06393023,0.0001473,53.0546,118.2095,76.6728,283.4425,0,U,48290,999,14621,1.20E-04,1.50E-05,0
STARLINK-2555,2021-036R,2023-12-20T16:08:09.996288,15.06393171,0.0001362,53.0553,117.9216,89.7288,270.3857,0,U,48291,999,14622,4.54E-05,3.95E-06,0
STARLINK-2542,2021-036S,2023-12-21T11:30:34.474752,15.06406914,0.0001254,53.0561,114.4619,100.7392,259.3738,0,U,48292,999,14692,6.25E-05,6.49E-06,0
STARLINK-2550,2021-036T,2023-12-20T15:57:32.087808,15.0639689,0.0001271,53.0531,117.9567,74.6229,285.49,0,U,48293,999,14622,-2.35E-04,-3.79E-05,0
STARLINK-2533,2021-036U,2023-12-20T15:52:13.848096,15.06396098,0.0001395,53.0533,117.9732,87.7149,272.4,0,U,48294,999,14622,-2.00E-04,-3.26E-05,0
STARLINK-2535,2021-036V,2023-12-20T15:46:53.847552,15.06418818,0.0001054,53.0545,117.9935,87.8626,272.2484,0,U,48295,999,14622,2.36E-04,3.24E-05,0
